STARLINK-4716           
1 53706U 22107G   23302.97689960  .00014584  00000+0  93195-3 0  9998
2 53706  53.2143 152.5614 0001433  89.0532 271.0625 15.08861215 64014
STARLINK-4667           
1 53707U 22107H   23303.56522909 -.00003768  00000+0 -21878-3 0  9997
2 53707  53.2153 134.8725 0001422  88.8072 271.3082 15.08837168 64319
STARLINK-4694           
1 53708U 22107J   23303.55050226  .00001117  00000+0  88282-4 0  9992
2 53708  53.2154 134.7899 0001319  89.0736 271.0407 15.08833647 64313
STARLINK-4685           
1 53709U 22107K   23302.87519838  .00011453  00000+0  73617-3 0  9995
2 53709  53.2146 157.6495 0001748  86.5757 273.5435 15.08858439 63933
STARLINK-4627           
1 53711U 22107M   23302.75377095  .00002876  00000+0  19868-3 0  9999
2 53711  53.2158 158.3026 0001655  90.4243 269.6939 15.08844291 64351
STARLINK-4683           
1 53712U 22107N   23303.78782418  .00004897  00000+0  32551-3 0  9992
2 53712  53.2144 153.4035 0001303 104.8746 255.2391 15.08843992 64070
STARLINK-4698           
1 53713U 22107P   23303.79657243  .00000782  00000+0  67241-4 0  9995
2 53713  53.2156 158.4179 0001410  96.0443 264.0710 15.08833920 64009
STARLINK-4688           
1 53714U 22107Q   23303.54313178  .00000601  00000+0  55823-4 0  9998
2 53714  53.2145 134.7361 0001168  83.4571 276.6554 15.08835443 64311
STARLINK-4686           
1 53715U 22107R   23303.01273571  .00004251  00000+0  28493-3 0  9990
2 53715  53.2165 162.0554 0001639  85.9471 274.1709 15.08852591 63879
STARLINK-4699           
1 53716U 22107S   23303.40649824  .00001324  00000+0  10128-3 0  9996
2 53716  53.2153 160.2501 0001289  88.4161 271.6979 15.08840154 63934
STARLINK-4695           
1 53718U 22107U   23303.90666032 -.00000554  00000+0 -17793-4 0  9995
2 53718  53.2144 158.3853 0001383 100.7402 259.3745 15.07202042 64005
STARLINK-4644           
1 53719U 22107V   23303.79565143  .00001768  00000+0  12914-3 0  9999
2 53719  53.2142 128.4457 0001443  91.2442 268.8715 15.08840319 64409
STARLINK-4642           
1 53720U 22107W   23303.34762572  .00001522  00000+0  11366-3 0  9995
2 53720  53.2150 160.5930 0001338  86.6136 273.5009 15.08841146 63928
STARLINK-4707           
1 53721U 22107X   23302.89131175  .00003791  00000+0  25608-3 0  9998
2 53721  53.2161 162.7190 0001524  87.2401 272.8766 15.08851209 64319
STARLINK-4700           
1 53722U 22107Y   23303.03116532  .00008709  00000+0  56437-3 0  9994
2 53722  53.2151 162.1659 0001499  95.9231 264.1932 15.08853945 63879
STARLINK-4705           
1 53723U 22107Z   23303.80025335  .00001341  00000+0  10233-3 0  9999
2 53723  53.2155 158.4451 0001878 115.7450 244.3736 15.08840066 63992
STARLINK-4663           
1 53724U 22107AA  23302.88763173  .00005812  00000+0  38283-3 0  9998
2 53724  53.2158 162.6958 0001299  90.9870 269.1271 15.08849936 64313
STARLINK-4697           
1 53726U 22107AC  23302.89499773  .00010995  00000+0  70747-3 0  9992
2 53726  53.2161 162.7405 0001570  95.9493 264.1678 15.08856972 63857
STARLINK-4701           
1 53727U 22107AD  23303.63469692  .00000775  00000+0  66753-4 0  9991
2 53727  53.2155 159.5383 0001384 100.6911 259.4237 15.08840566 63964
STARLINK-4640           
1 53728U 22107AE  23302.90236696  .00005776  00000+0  38057-3 0  9998
2 53728  53.2160 162.7876 0001172  84.7481 275.3645 15.08850820 63855
STARLINK-4651           
1 53729U 22107AF  23303.71199045 -.00000810  00000+0 -32830-4 0  9995
2 53729  53.2150 159.3137 0001404  96.5562 263.5590 15.08836079 63977
STARLINK-4641           
1 53730U 22107AG  23303.90334022  .00000182  00000+0  29552-4 0  9991
2 53730  53.2150 158.3735 0001366  89.0061 271.1087 15.08838890 64004
STARLINK-4636           
1 53731U 22107AH  23303.78191868  .00000299  00000+0  36901-4 0  9992
2 53731  53.2152 159.0379 0001314  87.7062 272.4081 15.08834778 63983
STARLINK-4661           
1 53732U 22107AJ  23303.64302108  .00001237  00000+0  95804-4 0  9999
2 53732  53.2143 159.5909 0001580  96.2260 263.8913 15.08842041 63966
STARLINK-4574           
1 53733U 22107AK  23303.78928637  .00000518  00000+0  50655-4 0  9992
2 53733  53.2144 159.0842 0001220  70.6109 289.5015 15.08838060 63984
STARLINK-4616           
1 53734U 22107AL  23303.90702723  .00000025  00000+0  19669-4 0  9996
2 53734  53.2158 158.4003 0001436  96.9392 263.1764 15.08837966 64003
STARLINK-4618           
1 53735U 22107AM  23302.89039407 -.00000467  00000+0 -11221-4 0  9994
2 53735  53.2166 172.7019 0001616  88.7197 271.3980 15.08843195 63710
STARLINK-4652           
1 53736U 22107AN  23303.78560099 -.00000434  00000+0 -91583-5 0  9994
2 53736  53.2157 159.0616 0001650 101.4432 258.6746 15.08836015 63985
STARLINK-4646           
1 53737U 22107AP  23303.35775601  .00001113  00000+0  87998-4 0  9992
2 53737  53.2147 170.6425 0001431  91.6410 268.4747 15.08844126 63785
STARLINK-4662           
1 53738U 22107AQ  23303.35038931  .00001251  00000+0  96692-4 0  9995
2 53738  53.2160 170.5989 0001465  91.4762 268.6398 15.08840004 63785
STARLINK-4607           
1 53740U 22107AS  23303.36144561  .00000351  00000+0  40170-4 0  9996
2 53740  53.2163 170.6657 0001815  90.1726 269.9474 15.08837089 63787
STARLINK-4614           
1 53741U 22107AT  23302.87615253  .00001300  00000+0  99747-4 0  9992
2 53741  53.2168 157.7215 0001535  70.5602 289.5556 15.08850002 63928
STARLINK-4637           
1 53742U 22107AU  23303.36512787  .00001459  00000+0  10974-3 0  9995
2 53742  53.2158 170.6893 0001281  89.0080 271.1059 15.08839884 63781
STARLINK-4645           
1 53743U 22107AV  23303.04866403  .00007434  00000+0  48445-3 0  9991
2 53743  53.2160 172.2657 0001437  89.7686 270.3471 15.08854749 63734
STARLINK-4670           
1 53744U 22107AW  23303.79933216  .00002568  00000+0  17937-3 0  9996
2 53744  53.2155 168.4328 0001548 103.2156 256.9009 15.08845284 63852
STARLINK-4656           
1 53745U 22107AX  23303.64851476  .00000332  00000+0  38954-4 0  9998
2 53745  53.2157 169.6140 0001808  87.9180 272.2019 15.08838395 63828
STARLINK-4589           
1 53746U 22107AY  23303.37617635  .00005384  00000+0  35601-3 0  9993
2 53746  53.2162 170.7565 0000491 147.2021 212.9002 15.08849707 63787
STARLINK-4669           
1 53748U 22107BA  23303.78467872  .00000662  00000+0  59692-4 0  9997
2 53748  53.2164 169.0363 0001889 112.8521 247.2670 15.08841432 63849
STARLINK-4680           
1 53749U 22107BB  23303.78835874  .00001072  00000+0  85424-4 0  9997
2 53749  53.2163 169.0286 0001483  86.0647 274.0515 15.08838648 63845
STARLINK-4612           
1 53750U 22107BC  23303.79204709 -.00000236  00000+0  32395-5 0  9999
2 53750  53.2166 169.0879 0001430  93.9130 266.2026 15.08839032 63842
SHERPA-LTC2             
1 53754U 22107BG  23303.16386281  .00006432  00000+0  38474-3 0  9995
2 53754  53.2386 280.2654 0459985  90.8278 274.5404 14.52634428 61994
STARLINK-4718           
1 53773U 22111A   23303.87849199  .00008964  00000+0  58055-3 0  9990
2 53773  53.2158 188.3753 0001341  67.0590 293.0543 15.08843327 62793
STARLINK-4719           
1 53774U 22111B   23303.41112215 -.00001223  00000+0 -58803-4 0  9998
2 53774  53.2168 190.4317 0001342  93.3265 266.7880 15.08834973 62728
STARLINK-4722           
1 53775U 22111C   23303.37528805  .00003599  00000+0  24410-3 0  9992
2 53775  53.2154 180.9452 0002015  80.7685 279.3535 15.08843781 62850
STARLINK-4708           
1 53776U 22111D   23303.63521327  .00000403  00000+0  43394-4 0  9998
2 53776  53.2166 184.7079 0001407  88.4741 271.6413 15.08833143 62821
STARLINK-4664           
1 53777U 22111E   23303.36791512  .00000228  00000+0  32390-4 0  9993
2 53777  53.2162 180.8992 0001287  84.7491 275.3648 15.08837174 62858
STARLINK-4709           
1 53778U 22111F   23303.39500544  .00003242  00000+0  22168-3 0  9990
2 53778  53.2163 185.3472 0001650  81.5024 278.6155 15.08842834 62795
STARLINK-4706           
1 53779U 22111G   23302.90055057  .00004429  00000+0  29616-3 0  9994
2 53779  53.2164 182.9586 0001638  87.5716 272.5464 15.08845714 62781
STARLINK-4678           
1 53780U 22111H   23303.37159811  .00001408  00000+0  10651-3 0  9994
2 53780  53.2164 180.9232 0001500  85.1082 275.0081 15.08843238 62857
STARLINK-4462           
1 53781U 22111J   23302.95573283  .00004616  00000+0  30783-3 0  9993
2 53781  53.2156 182.5916 0001484  88.0672 272.0490 15.08848597 63602
STARLINK-4679           
1 53782U 22111K   23303.36054265  .00005324  00000+0  35221-3 0  9993
2 53782  53.2161 180.8525 0001606  81.5819 278.5355 15.08852458 62851
STARLINK-4536           
1 53783U 22111L   23303.08084690  .00012549  00000+0  80470-3 0  9991
2 53783  53.2160 181.9534 0001364  90.2029 269.9119 15.08859801 62811
STARLINK-4687           
1 53784U 22111M   23303.35686053  .00007133  00000+0  46563-3 0  9991
2 53784  53.2175 180.8348 0001643  87.8419 272.2762 15.08853522 62853
STARLINK-4631           
1 53786U 22111P   23302.85453773  .00000555  00000+0  52963-4 0  9991
2 53786  53.2162 172.8096 0001645  89.7048 270.4132 15.08842326 62922
STARLINK-4743           
1 53787U 22111Q   23303.40467863  .00002639  00000+0  18385-3 0  9993
2 53787  53.2175 180.4177 0001848  83.6317 276.4885 15.08844814 62867
STARLINK-4666           
1 53789U 22111S   23303.39362445  .00001691  00000+0  12434-3 0  9999
2 53789  53.2176 180.3511 0001706  82.5942 277.5244 15.08840095 62864
STARLINK-4734           
1 53790U 22111T   23303.07715799  .00013578  00000+0  86916-3 0  9993
2 53790  53.2164 181.9282 0001311  94.6965 265.4177 15.08855934 62810
STARLINK-4739           
1 53792U 22111V   23303.79843612  .00001417  00000+0  10711-3 0  9999
2 53792  53.2168 178.6114 0001768 102.4874 257.6316 15.08840307 62924
STARLINK-4728           
1 53793U 22111W   23303.39826902  .00001388  00000+0  10529-3 0  9993
2 53793  53.2177 180.3784 0001796  90.1889 269.9309 15.08837570 62867
